#dP2023  4  7  0  0  0.00000000      96 __u+U IGS14 FIT  IAC
## 2256 432000.00000000   900.00000000 60041 0.0000000000000
+  118   C06C07C08C09C10C11C12C13C14C16C19C20C21C22C23C24C25
+        C26C27C28C29C30C32C33C34C35C36C37C38C39C40C41C42C43
+        C44C45C46E01E02E03E04E05E07E08E09E10E11E12E13E14E15
+        E18E19E21E24E25E26E27E30E31E33E34E36G01G03G04G05G06
+        G07G08G09G10G11G12G13G14G15G16G17G18G19G20G21G22G23
+        G24G25G26G27G28G29G30G31G32J02J03J04R01R02R03R04R05
+        R07R08R09R11R12R13R14R15R16R17R18R19R20R22R24R25  0
++         7  7  7  7  7  7  7  7  7  7  6  6  5  6  6  6  6
++         6  6  6  6  6  6  6  6  6  6  6  6  6  6  6  6  6
++         6  6  6  4  4  4  4  4  4  4  4  4  4  4  4  5  4
++         4  4  5  4  4  4  4  4  4  4  5  4  4  3  3  3  4
++         4  4  3  4  3  3  4  4  4  3  4  4  4  4  4  4  4
++         4  3  3  3  4  3  4  4  4  9  9 10  8  9  7  7  7
++         7  7  7  6  7  8  7  7  7  7  7  7  7  7  7  8  0
%c M  cc GPS ccc cccc cccc cccc cccc ccccc ccccc ccccc ccccc
%c cc cc ccc ccc cccc cccc cccc cccc ccccc ccccc ccccc ccccc
%f  1.2500000  1.025000000  0.00000000000  0.000000000000000
%f  0.0000000  0.000000000  0.00000000000  0.000000000000000
%i    0    0    0    0      0      0      0      0         0
%i    0    0    0    0      0      0      0      0         0
/* INFORMATION & ANALYSIS CENTER (IAC)            FINAL DATA
/* S/V CLOCKS ARE ALIGNED TO GNSS TIME                      
/* G:C1WC2W R:C1PC2P E:C1XC5X C:C2IC6I J:C1CC2S             
/* PCV:IGS20_2247 OL/AL:FES2004  NONE     YN ORB:CoN CLK:CoN
*  2023 04 07  0 15  0.00000000
PC06 -18308.869664  28470.923616  25004.426444   -197.245745
PC07  -8206.219340  39757.716653  11755.043908   -132.320519
PC08  -1592.814364  22615.918502 -35515.649273    508.929051
PC09  -8514.637748  27503.458261  31040.194545    796.179214
PC10  -2306.965155  42088.627540   5262.639424    -27.073941
PC11  -1835.393530 -16685.110151  22352.920983    748.215776
PC12  15738.600674 -20232.402987  11063.781939    555.011150
PC13   4960.977419  26168.929861 -32453.413745    247.006570
PC14  -6857.057285 -26490.364429  -5286.074106     89.628200
PC16 -20950.514603  28102.733675  23444.759310    116.945046
PC19  12049.097109  21049.777558  13855.489308   -899.502133
PC20   1730.223142  27773.066948  -2319.755155    639.603146
PC21  10525.450748 -18132.663693  18424.541673   -909.365665
PC22  15933.093780   1895.307217  22839.910599   -548.382757
PC23 -26362.556846  -5827.035001   7063.977992   -900.875513
PC24  -1318.510342 -17565.363926 -21664.705607   -202.208563
PC25 -20911.252438 -15830.136520  -9573.803532    101.671145
PC26  16296.570720  -9394.992789 -20618.757660   -102.655651
PC27 -21119.088823  17977.313981  -3032.112738    121.834095
PC28 -23881.474070   6163.769024  13053.833624     89.607160
PC29  12449.204998  10372.619063 -22728.780124    103.707305
PC30  -6439.059280  20696.622652 -17572.561158      0.532213
PC32 -10384.124435  18208.472615 -18408.402234   -583.903279
PC33 -12128.339581 -21029.847350 -13732.693265   -872.424666
PC34   5238.183677 -20411.789313  18292.560634    143.311334
PC35  23497.636489  -6204.135535 -13768.554272    650.756160
PC36  20003.400935  16570.017779  10211.202628   -516.827810
PC37 -17662.330037   8091.198851  20049.913131   -792.602607
PC38 -11097.975054  20093.592887 -35328.295012     70.059345
PC39 -25098.131991  28604.680930  17965.620435     -2.455492
PC40 -12756.802520  37501.489374  14760.813918    -19.639350
PC41 -15976.397902  -2558.868036 -22676.554267   -818.237088
PC42   -827.546149 -27638.374584   3704.104263   -749.367356
PC43 -11736.649817 -11144.383704  22718.937592     15.459820
PC44  20579.399782 -18669.822969   2775.618232     67.994719
PC45  26286.434404   5546.224727  -7513.104527    -81.824205
PC46   3111.559987  17828.227476  21227.292939    -45.195183
PE01 -21787.891089 -12151.979825  15931.525295     -5.865826
PE02  21768.131637  11684.611450 -16297.883632     30.837523
PE03  18040.661642    276.240993  23466.733107   -666.685107
PE04 -18642.776143  19189.691170 -12653.292492    -94.997869
PE05   6795.449605  20039.242228  20707.892889    -79.209411
PE07   8416.401445 -27796.729435  -5679.795483    -35.662755
PE08  18607.081343 -19046.410997  12923.942749    -63.302561
PE09  -8513.469038  27809.970311   5553.526703   -895.934421
PE10 -17892.623828  13994.486439 -18984.230720   -524.618738
PE11  -6549.960772  16156.456848 -23928.275073   1518.479104
PE12 -25404.177882   9859.659459 -11530.028597   -488.485521
PE13   7520.960750 -16028.303364  23726.337230    -18.338260
PE14  20288.890242    298.164086 -20968.386565    189.902440
PE15  25623.014501  -9692.509679  11233.846658    -12.776144
PE18 -20610.277501  17026.333311  10148.698634   -195.236215
PE19 -16939.004805  -3196.358460 -24049.995146  -2826.542456
PE21 -16836.106008 -24347.605325   -312.527304   -521.904331
PE24   1067.631969  23359.743360  18114.694282    -30.160147
PE25  16651.432534  24459.720638    627.089625   -602.797785
PE26 -15560.010489 -12760.734329  21707.256423     67.743933
PE27  -1864.744840 -23704.337417 -17640.946559    -18.829932
PE30  14520.584090  -8515.621776 -24362.041161    -72.287986
PE31 -14062.124323   9097.937207  24406.887402   -520.612589
PE33 -28450.601193  -2323.604446   7801.166742   -446.983458
PE34  28512.764123   2175.349967  -7655.377610    -38.884090
PE36  14785.163535  12897.909737 -22168.088553    -37.549937
PG01  10243.913721  13464.194305 -20895.225002    195.575671
PG03  12663.726967  23288.013939  -2622.113593   -334.883783
PG04   4348.253406  18481.803117  18538.481380     10.692621
PG05   -907.985903 -20850.232077  16187.369234   -122.416249
PG06  25041.955711  -5535.485498   7167.292520    585.813411
PG07  22756.498006   7836.100347  12206.929782    207.025743
PG08  -4576.840970  24240.643002  -9368.712378   -116.547040
PG09  12740.763676   8625.736984  21575.721719   -185.327026
PG10 -17423.589557  -2495.793724 -19809.367939    -31.741133
PG11  14941.558660 -12396.259881  18120.208968   -154.128356
PG12  -9388.785960 -24471.659891  -4868.135935   -360.798576
PG13  12691.701404 -22840.337142  -4289.486707    501.950320
PG14  18463.795013   5405.977727 -18362.641901     17.478277
PG15    959.729086 -24643.615943  -9952.895079     28.332805
PG16  -3964.501708  18954.611639  17661.389182   -510.625596
PG17  18064.558178  -6126.886609 -18098.670149    709.340993
PG18 -24678.155558  -5242.791961   8540.801758   -212.911074
PG19  19128.713932 -13883.745708 -12048.443298    300.222453
PG20   6958.778340 -14818.913481  20984.337239    440.502897
PG21   1489.210886  14845.606918 -21392.630249    154.282731
PG22 -17950.389843  17312.028187  -8445.262195    459.471947
PG23 -19308.361681 -13552.631451 -12344.533670     15.158223
PG24  -6176.321623 -15107.527825 -21352.217654   -141.833431
PG25 -16920.213115 -20081.423468   4548.226164    433.647566
PG26 -13153.120961   8655.911851  21278.438866    241.867145
PG27 -12629.436715  23078.628737    823.538607     64.508302
PG28 -25504.515190   5445.537376   4988.612797     60.289351
PG29  -8938.058955 -12905.732906  21357.080748   -594.386677
PG30  26697.578876   -387.014325    629.781835   -523.588115
PG31 -22583.590060   8508.257142  11418.119302   -213.384605
PG32 -18041.064770   9306.722156 -16846.151516   -444.615673
PJ02 -25569.006395  23006.402534  29391.790109     -1.436127
PJ03 -35699.043115  20031.888170  -5490.644577      1.912088
PJ04 -20255.042886  28883.728977 -17927.988629     94.163064
PR01   2855.111254  24082.402666   7942.864246     26.199556
PR02   9326.781657  10288.520004  21431.509494    -22.986377
PR03  10725.403323  -8966.797991  21400.915905     75.564328
PR04   6169.072575 -22802.827993   9673.193322    182.321344
PR05  -1608.651766 -24378.711611  -7353.409719    110.563339
PR07 -10596.015169   9737.400395 -21002.704145     53.290101
PR08  -5945.783129  22944.089118  -9327.331468    -70.226513
PR09 -22077.339761 -12455.749471   2468.973596    113.314514
PR11  -5164.316762   9665.642986  23041.460672    -31.410211
PR12  12619.992568  16678.299933  14611.744102     26.248691
PR13  21615.252203  13528.898638   -617.883534    -33.708232
PR14  18301.189889   1665.074399 -17691.666780     24.516312
PR15   4205.741429 -10401.565475 -22892.999390     89.953892
PR16 -12532.515406 -16456.980469 -14898.888188     13.237912
PR17  23360.757149  -9577.339409  -3513.768935    618.939205
PR18  16785.335395 -14343.532896  12837.666801     75.262350
PR19   3185.606588 -12163.863518  22191.063460   -228.091714
PR20 -16664.999008  -1994.770555  19193.430610    -90.635221
PR22 -16489.707634  14024.191086 -13454.289540     78.197009
PR24  17374.910691   1359.043639 -18609.424158    159.898288
PR25 -23830.434730   8326.721291   3723.616673     60.109692
EOF
